{
  "norad_id": 43262,
  "name": "GAOFEN-1 04",
  "history": [
    {
      "epoch": "2026-03-28T14:31:14.719008Z",
      "apogee_km": 641.5212338576848,
      "perigee_km": 639.4282838311965,
      "latitude_deg": -4.257081320537832e-05,
      "longitude_deg": 106.54099475608807,
      "height_km": 643.0586444045949,
      "semi_major_axis_km": 7018.61175884444,
      "eccentricity": 0.0001491,
      "inclination_deg": 98.0609,
      "raan_deg": 150.3754,
      "arg_perigee_deg": 65.996,
      "mean_anomaly_deg": 294.1405,
      "mean_motion_rev_day": 14.76474438
    }
  ]
}